STARLINK-34985          
1 65379U 25191A   26062.22659786  .00007488  00000+0  52242-3 0  9993
2 65379  97.6026 295.1043 0002257  83.8279 276.3205 15.05662979 29296
STARLINK-35051          
1 65380U 25191B   26062.19061410  .00019931  00000+0  13818-2 0  9993
2 65380  97.6021 295.1541 0002286  70.7198 289.4276 15.05645089 29301
STARLINK-35028          
1 65381U 25191C   26062.17398010  .00005669  00000+0  39673-3 0  9992
2 65381  97.6033 295.1778 0002284  64.4994 295.6469 15.05651545 29294
STARLINK-35032          
1 65382U 25191D   26062.20996655  .00004350  00000+0  30544-3 0  9990
2 65382  97.6011 295.1265 0001465  95.2211 264.9183 15.05657159 29295
STARLINK-35054          
1 65383U 25191E   26062.23488791  .00003249  00000+0  22927-3 0  9993
2 65383  97.6033 295.0964 0002447  77.8591 282.2910 15.05651734 29297
STARLINK-35012          
1 65384U 25191F   26062.21827425  .00003412  00000+0  24055-3 0  9999
2 65384  97.6011 295.1147 0002021  88.1998 271.9460 15.05655716 29291
STARLINK-35073          
1 65385U 25191G   26062.20166232  .00004154  00000+0  29192-3 0  9992
2 65385  97.6015 295.1387 0001932  94.7023 265.4424 15.05655425 29299
STARLINK-35066          
1 65386U 25191H   26062.51458710  .00005334  00000+0  37367-3 0  9996
2 65386  97.6032 295.4941 0002251  89.9456 270.2028 15.05645184 29340
STARLINK-34703          
1 65387U 25191J   26062.19612490  .00003142  00000+0  22182-3 0  9992
2 65387  97.6021 295.1468 0001575  89.0004 271.1403 15.05652338 29298
STARLINK-34957          
1 65388U 25191K   26062.17675699  .00007259  00000+0  50667-3 0  9993
2 65388  97.6039 295.1739 0002165  55.9769 304.1663 15.05656466 29296
STARLINK-34993          
1 65389U 25191L   26062.22104378  .00003802  00000+0  26751-3 0  9998
2 65389  97.6014 295.1117 0002628  86.4954 273.6573 15.05656206 29291
STARLINK-35083          
1 65390U 25191M   26062.23214098  .00007406  00000+0  51701-3 0  9999
2 65390  97.6040 295.0993 0002817  83.6379 276.5168 15.05644390 29296
STARLINK-34786          
1 65391U 25191N   26062.51734396  .00002382  00000+0  16927-3 0  9998
2 65391  97.6035 295.4894 0002395  78.5004 281.6492 15.05650354 29344
STARLINK-35082          
1 65392U 25191P   26062.23769015  .00009809  00000+0  68322-3 0  9991
2 65392  97.6036 295.2467 0002774  87.1154 273.0390 15.05639418 29309
STARLINK-35097          
1 65393U 25191Q   26062.34011668  .00002625  00000+0  18604-3 0  9995
2 65393  97.6014 295.2622 0001815  91.8989 268.2445 15.05655092 27864
STARLINK-35058          
1 65394U 25191R   26062.21275409  .00014200  00000+0  98571-3 0  9990
2 65394  97.6010 295.1233 0001900  68.9254 291.2176 15.05674236 29290
STARLINK-35094          
1 65395U 25191S   26062.21550616  .00005525  00000+0  38670-3 0  9991
2 65395  97.6011 295.1189 0001887  76.1288 284.0148 15.05657701 29303
