[{"OBJECT_NAME":"STARLINK-34985","OBJECT_ID":"2025-191A","EPOCH":"2026-03-03T05:26:18.055104","MEAN_MOTION":15.05662979,"ECCENTRICITY":0.0002257,"INCLINATION":97.6026,"RA_OF_ASC_NODE":295.1043,"ARG_OF_PERICENTER":83.8279,"MEAN_ANOMALY":276.3205,"EPHEMERIS_TYPE":0,"CLASSIFICATION_TYPE":"U","NORAD_CAT_ID":65379,"ELEMENT_SET_NO":999,"REV_AT_EPOCH":2929,"BSTAR":0.00052242,"MEAN_MOTION_DOT":7.488e-5,"MEAN_MOTION_DDOT":0},{"OBJECT_NAME":"STARLINK-35051","OBJECT_ID":"2025-191B","EPOCH":"2026-03-03T04:34:29.058240","MEAN_MOTION":15.05645089,"ECCENTRICITY":0.0002286,"INCLINATION":97.6021,"RA_OF_ASC_NODE":295.1541,"ARG_OF_PERICENTER":70.7198,"MEAN_ANOMALY":289.4276,"EPHEMERIS_TYPE":0,"CLASSIFICATION_TYPE":"U","NORAD_CAT_ID":65380,"ELEMENT_SET_NO":999,"REV_AT_EPOCH":2930,"BSTAR":0.0013818,"MEAN_MOTION_DOT":0.00019931,"MEAN_MOTION_DDOT":0},{"OBJECT_NAME":"STARLINK-35028","OBJECT_ID":"2025-191C","EPOCH":"2026-03-03T04:10:31.880640","MEAN_MOTION":15.05651545,"ECCENTRICITY":0.0002284,"INCLINATION":97.6033,"RA_OF_ASC_NODE":295.1778,"ARG_OF_PERICENTER":64.4994,"MEAN_ANOMALY":295.6469,"EPHEMERIS_TYPE":0,"CLASSIFICATION_TYPE":"U","NORAD_CAT_ID":65381,"ELEMENT_SET_NO":999,"REV_AT_EPOCH":2929,"BSTAR":0.00039673,"MEAN_MOTION_DOT":5.669e-5,"MEAN_MOTION_DDOT":0},{"OBJECT_NAME":"STARLINK-35032","OBJECT_ID":"2025-191D","EPOCH":"2026-03-03T05:02:21.109920","MEAN_MOTION":15.05657159,"ECCENTRICITY":0.0001465,"INCLINATION":97.6011,"RA_OF_ASC_NODE":295.1265,"ARG_OF_PERICENTER":95.2211,"MEAN_ANOMALY":264.9183,"EPHEMERIS_TYPE":0,"CLASSIFICATION_TYPE":"U","NORAD_CAT_ID":65382,"ELEMENT_SET_NO":999,"REV_AT_EPOCH":2929,"BSTAR":0.00030544,"MEAN_MOTION_DOT":4.35e-5,"MEAN_MOTION_DDOT":0},{"OBJECT_NAME":"STARLINK-35054","OBJECT_ID":"2025-191E","EPOCH":"2026-03-03T05:38:14.315424","MEAN_MOTION":15.05651734,"ECCENTRICITY":0.0002447,"INCLINATION":97.6033,"RA_OF_ASC_NODE":295.0964,"ARG_OF_PERICENTER":77.8591,"MEAN_ANOMALY":282.291,"EPHEMERIS_TYPE":0,"CLASSIFICATION_TYPE":"U","NORAD_CAT_ID":65383,"ELEMENT_SET_NO":999,"REV_AT_EPOCH":2929,"BSTAR":0.00022927,"MEAN_MOTION_DOT":3.249e-5,"MEAN_MOTION_DDOT":0},{"OBJECT_NAME":"STARLINK-35012","OBJECT_ID":"2025-191F","EPOCH":"2026-03-03T05:14:18.895200","MEAN_MOTION":15.05655716,"ECCENTRICITY":0.0002021,"INCLINATION":97.6011,"RA_OF_ASC_NODE":295.1147,"ARG_OF_PERICENTER":88.1998,"MEAN_ANOMALY":271.946,"EPHEMERIS_TYPE":0,"CLASSIFICATION_TYPE":"U","NORAD_CAT_ID":65384,"ELEMENT_SET_NO":999,"REV_AT_EPOCH":2929,"BSTAR":0.00024055,"MEAN_MOTION_DOT":3.412e-5,"MEAN_MOTION_DDOT":0},{"OBJECT_NAME":"STARLINK-35073","OBJECT_ID":"2025-191G","EPOCH":"2026-03-03T04:50:23.624448","MEAN_MOTION":15.05655425,"ECCENTRICITY":0.0001932,"INCLINATION":97.6015,"RA_OF_ASC_NODE":295.1387,"ARG_OF_PERICENTER":94.7023,"MEAN_ANOMALY":265.4424,"EPHEMERIS_TYPE":0,"CLASSIFICATION_TYPE":"U","NORAD_CAT_ID":65385,"ELEMENT_SET_NO":999,"REV_AT_EPOCH":2929,"BSTAR":0.00029192,"MEAN_MOTION_DOT":4.154e-5,"MEAN_MOTION_DDOT":0},{"OBJECT_NAME":"STARLINK-35066","OBJECT_ID":"2025-191H","EPOCH":"2026-03-03T12:21:00.325440","MEAN_MOTION":15.05645184,"ECCENTRICITY":0.0002251,"INCLINATION":97.6032,"RA_OF_ASC_NODE":295.4941,"ARG_OF_PERICENTER":89.9456,"MEAN_ANOMALY":270.2028,"EPHEMERIS_TYPE":0,"CLASSIFICATION_TYPE":"U","NORAD_CAT_ID":65386,"ELEMENT_SET_NO":999,"REV_AT_EPOCH":2934,"BSTAR":0.00037367,"MEAN_MOTION_DOT":5.334e-5,"MEAN_MOTION_DDOT":0},{"OBJECT_NAME":"STARLINK-34703","OBJECT_ID":"2025-191J","EPOCH":"2026-03-03T04:42:25.191360","MEAN_MOTION":15.05652338,"ECCENTRICITY":0.0001575,"INCLINATION":97.6021,"RA_OF_ASC_NODE":295.1468,"ARG_OF_PERICENTER":89.0004,"MEAN_ANOMALY":271.1403,"EPHEMERIS_TYPE":0,"CLASSIFICATION_TYPE":"U","NORAD_CAT_ID":65387,"ELEMENT_SET_NO":999,"REV_AT_EPOCH":2929,"BSTAR":0.00022182,"MEAN_MOTION_DOT":3.142e-5,"MEAN_MOTION_DDOT":0},{"OBJECT_NAME":"STARLINK-34957","OBJECT_ID":"2025-191K","EPOCH":"2026-03-03T04:14:31.803936","MEAN_MOTION":15.05656466,"ECCENTRICITY":0.0002165,"INCLINATION":97.6039,"RA_OF_ASC_NODE":295.1739,"ARG_OF_PERICENTER":55.9769,"MEAN_ANOMALY":304.1663,"EPHEMERIS_TYPE":0,"CLASSIFICATION_TYPE":"U","NORAD_CAT_ID":65388,"ELEMENT_SET_NO":999,"REV_AT_EPOCH":2929,"BSTAR":0.00050667,"MEAN_MOTION_DOT":7.259e-5,"MEAN_MOTION_DDOT":0},{"OBJECT_NAME":"STARLINK-34993","OBJECT_ID":"2025-191L","EPOCH":"2026-03-03T05:18:18.182592","MEAN_MOTION":15.05656206,"ECCENTRICITY":0.0002628,"INCLINATION":97.6014,"RA_OF_ASC_NODE":295.1117,"ARG_OF_PERICENTER":86.4954,"MEAN_ANOMALY":273.6573,"EPHEMERIS_TYPE":0,"CLASSIFICATION_TYPE":"U","NORAD_CAT_ID":65389,"ELEMENT_SET_NO":999,"REV_AT_EPOCH":2929,"BSTAR":0.00026751,"MEAN_MOTION_DOT":3.802e-5,"MEAN_MOTION_DDOT":0},{"OBJECT_NAME":"STARLINK-35083","OBJECT_ID":"2025-191M","EPOCH":"2026-03-03T05:34:16.980672","MEAN_MOTION":15.0564439,"ECCENTRICITY":0.0002817,"INCLINATION":97.604,"RA_OF_ASC_NODE":295.0993,"ARG_OF_PERICENTER":83.6379,"MEAN_ANOMALY":276.5168,"EPHEMERIS_TYPE":0,"CLASSIFICATION_TYPE":"U","NORAD_CAT_ID":65390,"ELEMENT_SET_NO":999,"REV_AT_EPOCH":2929,"BSTAR":0.00051701,"MEAN_MOTION_DOT":7.406e-5,"MEAN_MOTION_DDOT":0},{"OBJECT_NAME":"STARLINK-34786","OBJECT_ID":"2025-191N","EPOCH":"2026-03-03T12:24:58.518144","MEAN_MOTION":15.05650354,"ECCENTRICITY":0.0002395,"INCLINATION":97.6035,"RA_OF_ASC_NODE":295.4894,"ARG_OF_PERICENTER":78.5004,"MEAN_ANOMALY":281.6492,"EPHEMERIS_TYPE":0,"CLASSIFICATION_TYPE":"U","NORAD_CAT_ID":65391,"ELEMENT_SET_NO":999,"REV_AT_EPOCH":2934,"BSTAR":0.00016927,"MEAN_MOTION_DOT":2.382e-5,"MEAN_MOTION_DDOT":0},{"OBJECT_NAME":"STARLINK-35082","OBJECT_ID":"2025-191P","EPOCH":"2026-03-03T05:42:16.428960","MEAN_MOTION":15.05639418,"ECCENTRICITY":0.0002774,"INCLINATION":97.6036,"RA_OF_ASC_NODE":295.2467,"ARG_OF_PERICENTER":87.1154,"MEAN_ANOMALY":273.039,"EPHEMERIS_TYPE":0,"CLASSIFICATION_TYPE":"U","NORAD_CAT_ID":65392,"ELEMENT_SET_NO":999,"REV_AT_EPOCH":2930,"BSTAR":0.00068322,"MEAN_MOTION_DOT":9.809e-5,"MEAN_MOTION_DDOT":0},{"OBJECT_NAME":"STARLINK-35097","OBJECT_ID":"2025-191Q","EPOCH":"2026-03-03T08:09:46.081152","MEAN_MOTION":15.05655092,"ECCENTRICITY":0.0001815,"INCLINATION":97.6014,"RA_OF_ASC_NODE":295.2622,"ARG_OF_PERICENTER":91.8989,"MEAN_ANOMALY":268.2445,"EPHEMERIS_TYPE":0,"CLASSIFICATION_TYPE":"U","NORAD_CAT_ID":65393,"ELEMENT_SET_NO":999,"REV_AT_EPOCH":2786,"BSTAR":0.00018604,"MEAN_MOTION_DOT":2.625e-5,"MEAN_MOTION_DDOT":0},{"OBJECT_NAME":"STARLINK-35058","OBJECT_ID":"2025-191R","EPOCH":"2026-03-03T05:06:21.953376","MEAN_MOTION":15.05674236,"ECCENTRICITY":0.00019,"INCLINATION":97.601,"RA_OF_ASC_NODE":295.1233,"ARG_OF_PERICENTER":68.9254,"MEAN_ANOMALY":291.2176,"EPHEMERIS_TYPE":0,"CLASSIFICATION_TYPE":"U","NORAD_CAT_ID":65394,"ELEMENT_SET_NO":999,"REV_AT_EPOCH":2929,"BSTAR":0.00098571,"MEAN_MOTION_DOT":0.000142,"MEAN_MOTION_DDOT":0},{"OBJECT_NAME":"STARLINK-35094","OBJECT_ID":"2025-191S","EPOCH":"2026-03-03T05:10:19.732224","MEAN_MOTION":15.05657701,"ECCENTRICITY":0.0001887,"INCLINATION":97.6011,"RA_OF_ASC_NODE":295.1189,"ARG_OF_PERICENTER":76.1288,"MEAN_ANOMALY":284.0148,"EPHEMERIS_TYPE":0,"CLASSIFICATION_TYPE":"U","NORAD_CAT_ID":65395,"ELEMENT_SET_NO":999,"REV_AT_EPOCH":2930,"BSTAR":0.0003867,"MEAN_MOTION_DOT":5.525e-5,"MEAN_MOTION_DDOT":0}]
